STARLINK-35509          
1 66199U 25243Y   25323.33336806 -.02045026  00000+0 -36546-1 0  9999
2 66199  53.1598  38.6844 0001174  55.7288  25.2235 15.52689389  4824
STARLINK-35551          
1 66200U 25243Z   25323.25002315 -.02039535  00000+0 -35946-1 0  9999
2 66200  53.1601  39.0928 0001034  92.9733 237.9525 15.53062315  4811
STARLINK-35543          
1 66201U 25243AA  25323.25002315 -.02035610  00000+0 -35872-1 0  9998
2 66201  53.1601  39.0964 0001139  98.5843 230.4280 15.53058584  4877
STARLINK-35534          
1 66202U 25243AB  25323.25002315 -.02035579  00000+0 -35871-1 0  9992
2 66202  53.1602  39.1006 0001111  99.3857 227.7091 15.53059246  4810
STARLINK-35548          
1 66203U 25243AC  25323.25002315 -.02034472  00000+0 -35850-1 0  9991
2 66203  53.1598  39.1050 0001096  99.3612 225.8173 15.53058337  4871
STARLINK-35490          
1 66204U 25243AD  25323.25002315 -.02037306  00000+0 -35902-1 0  9999
2 66204  53.1604  39.1128 0001140  97.3380 224.0041 15.53061158  4753
STARLINK-35748          
1 66206U 25244A   25323.25002315 -.02636416  00000+0 -67814-1 0  9996
2 66206  53.1605  26.8651 0001651  48.8443 351.8427 15.42666945  4488
STARLINK-35747          
1 66207U 25244B   25323.21455443  .00164621  00000+0  11043-2 0  9991
2 66207  53.1599  25.9890 0000962  66.4115 293.7006 15.74234119  4703
STARLINK-35751          
1 66208U 25244C   25323.25002315 -.02375968  00000+0 -61309-1 0  9993
2 66208  53.1605  26.8602 0001528  63.6296 339.4546 15.42169520  4593
STARLINK-35750          
1 66209U 25244D   25323.25002315 -.02037016  00000+0 -48148-1 0  9999
2 66209  53.1602  26.8252 0001092  78.6805 341.7618 15.44777561  4565
STARLINK-35740          
1 66210U 25244E   25323.25002315 -.02043462  00000+0 -48292-1 0  9993
2 66210  53.1608  26.8291 0001193  83.5437 335.0190 15.44793352  4437
STARLINK-35723          
1 66211U 25244F   25323.25002315 -.02071680  00000+0 -44418-1 0  9993
2 66211  53.1608  26.8065 0000927  82.2839 347.1306 15.47645271  4480
