CCSDS_OMM_VERS = 2.0
CREATION_DATE  = 
ORIGINATOR     = 

OBJECT_NAME    = STARLINK-35509
OBJECT_ID      = 2025-243Y
CENTER_NAME    = EARTH
REF_FRAME      = TEME
TIME_SYSTEM    = UTC
MEAN_ELEMENT_THEORY = SGP/SGP4

EPOCH          = 2025-11-19T08:00:03.000384
MEAN_MOTION    = 15.52689389
ECCENTRICITY   = .00011744
INCLINATION    = 53.1598
RA_OF_ASC_NODE = 38.6844
ARG_OF_PERICENTER = 55.7288
MEAN_ANOMALY   = 25.2235

EPHEMERIS_TYPE = 0
CLASSIFICATION_TYPE = U
NORAD_CAT_ID   = 66199
ELEMENT_SET_NO = 999
REV_AT_EPOCH   = 482
BSTAR          = -.36546453E-1
MEAN_MOTION_DOT = -.2045026E-1
MEAN_MOTION_DDOT = 0

CCSDS_OMM_VERS = 2.0
CREATION_DATE  = 
ORIGINATOR     = 

OBJECT_NAME    = STARLINK-35551
OBJECT_ID      = 2025-243Z
CENTER_NAME    = EARTH
REF_FRAME      = TEME
TIME_SYSTEM    = UTC
MEAN_ELEMENT_THEORY = SGP/SGP4

EPOCH          = 2025-11-19T06:00:02.000160
MEAN_MOTION    = 15.53062315
ECCENTRICITY   = .00010343
INCLINATION    = 53.1601
RA_OF_ASC_NODE = 39.0928
ARG_OF_PERICENTER = 92.9733
MEAN_ANOMALY   = 237.9525

EPHEMERIS_TYPE = 0
CLASSIFICATION_TYPE = U
NORAD_CAT_ID   = 66200
ELEMENT_SET_NO = 999
REV_AT_EPOCH   = 481
BSTAR          = -.35945672E-1
MEAN_MOTION_DOT = -.2039535E-1
MEAN_MOTION_DDOT = 0

CCSDS_OMM_VERS = 2.0
CREATION_DATE  = 
ORIGINATOR     = 

OBJECT_NAME    = STARLINK-35543
OBJECT_ID      = 2025-243AA
CENTER_NAME    = EARTH
REF_FRAME      = TEME
TIME_SYSTEM    = UTC
MEAN_ELEMENT_THEORY = SGP/SGP4

EPOCH          = 2025-11-19T06:00:02.000160
MEAN_MOTION    = 15.53058584
ECCENTRICITY   = .00011397
INCLINATION    = 53.1601
RA_OF_ASC_NODE = 39.0964
ARG_OF_PERICENTER = 98.5843
MEAN_ANOMALY   = 230.4280

EPHEMERIS_TYPE = 0
CLASSIFICATION_TYPE = U
NORAD_CAT_ID   = 66201
ELEMENT_SET_NO = 999
REV_AT_EPOCH   = 487
BSTAR          = -.35871829E-1
MEAN_MOTION_DOT = -.203561E-1
MEAN_MOTION_DDOT = 0

CCSDS_OMM_VERS = 2.0
CREATION_DATE  = 
ORIGINATOR     = 

OBJECT_NAME    = STARLINK-35534
OBJECT_ID      = 2025-243AB
CENTER_NAME    = EARTH
REF_FRAME      = TEME
TIME_SYSTEM    = UTC
MEAN_ELEMENT_THEORY = SGP/SGP4

EPOCH          = 2025-11-19T06:00:02.000160
MEAN_MOTION    = 15.53059246
ECCENTRICITY   = .00011111
INCLINATION    = 53.1602
RA_OF_ASC_NODE = 39.1006
ARG_OF_PERICENTER = 99.3857
MEAN_ANOMALY   = 227.7091

EPHEMERIS_TYPE = 0
CLASSIFICATION_TYPE = U
NORAD_CAT_ID   = 66202
ELEMENT_SET_NO = 999
REV_AT_EPOCH   = 481
BSTAR          = -.35870691E-1
MEAN_MOTION_DOT = -.2035579E-1
MEAN_MOTION_DDOT = 0

CCSDS_OMM_VERS = 2.0
CREATION_DATE  = 
ORIGINATOR     = 

OBJECT_NAME    = STARLINK-35548
OBJECT_ID      = 2025-243AC
CENTER_NAME    = EARTH
REF_FRAME      = TEME
TIME_SYSTEM    = UTC
MEAN_ELEMENT_THEORY = SGP/SGP4

EPOCH          = 2025-11-19T06:00:02.000160
MEAN_MOTION    = 15.53058337
ECCENTRICITY   = .00010962
INCLINATION    = 53.1598
RA_OF_ASC_NODE = 39.1050
ARG_OF_PERICENTER = 99.3612
MEAN_ANOMALY   = 225.8173

EPHEMERIS_TYPE = 0
CLASSIFICATION_TYPE = U
NORAD_CAT_ID   = 66203
ELEMENT_SET_NO = 999
REV_AT_EPOCH   = 487
BSTAR          = -.35850196E-1
MEAN_MOTION_DOT = -.2034472E-1
MEAN_MOTION_DDOT = 0

CCSDS_OMM_VERS = 2.0
CREATION_DATE  = 
ORIGINATOR     = 

OBJECT_NAME    = STARLINK-35490
OBJECT_ID      = 2025-243AD
CENTER_NAME    = EARTH
REF_FRAME      = TEME
TIME_SYSTEM    = UTC
MEAN_ELEMENT_THEORY = SGP/SGP4

EPOCH          = 2025-11-19T06:00:02.000160
MEAN_MOTION    = 15.53061158
ECCENTRICITY   = .00011408
INCLINATION    = 53.1604
RA_OF_ASC_NODE = 39.1128
ARG_OF_PERICENTER = 97.3380
MEAN_ANOMALY   = 224.0041

EPHEMERIS_TYPE = 0
CLASSIFICATION_TYPE = U
NORAD_CAT_ID   = 66204
ELEMENT_SET_NO = 999
REV_AT_EPOCH   = 475
BSTAR          = -.35901931E-1
MEAN_MOTION_DOT = -.2037306E-1
MEAN_MOTION_DDOT = 0

CCSDS_OMM_VERS = 2.0
CREATION_DATE  = 
ORIGINATOR     = 

OBJECT_NAME    = STARLINK-35748
OBJECT_ID      = 2025-244A
CENTER_NAME    = EARTH
REF_FRAME      = TEME
TIME_SYSTEM    = UTC
MEAN_ELEMENT_THEORY = SGP/SGP4

EPOCH          = 2025-11-19T06:00:02.000160
MEAN_MOTION    = 15.42666945
ECCENTRICITY   = .00016512
INCLINATION    = 53.1605
RA_OF_ASC_NODE = 26.8651
ARG_OF_PERICENTER = 48.8443
MEAN_ANOMALY   = 351.8427

EPHEMERIS_TYPE = 0
CLASSIFICATION_TYPE = U
NORAD_CAT_ID   = 66206
ELEMENT_SET_NO = 999
REV_AT_EPOCH   = 448
BSTAR          = -.67813694E-1
MEAN_MOTION_DOT = -.2636416E-1
MEAN_MOTION_DDOT = 0

CCSDS_OMM_VERS = 2.0
CREATION_DATE  = 
ORIGINATOR     = 

OBJECT_NAME    = STARLINK-35747
OBJECT_ID      = 2025-244B
CENTER_NAME    = EARTH
REF_FRAME      = TEME
TIME_SYSTEM    = UTC
MEAN_ELEMENT_THEORY = SGP/SGP4

EPOCH          = 2025-11-19T05:08:57.502752
MEAN_MOTION    = 15.74234119
ECCENTRICITY   = .00009623
INCLINATION    = 53.1599
RA_OF_ASC_NODE = 25.9890
ARG_OF_PERICENTER = 66.4115
MEAN_ANOMALY   = 293.7006

EPHEMERIS_TYPE = 0
CLASSIFICATION_TYPE = U
NORAD_CAT_ID   = 66207
ELEMENT_SET_NO = 999
REV_AT_EPOCH   = 470
BSTAR          = .11043388E-2
MEAN_MOTION_DOT = .164621E-2
MEAN_MOTION_DDOT = 0

CCSDS_OMM_VERS = 2.0
CREATION_DATE  = 
ORIGINATOR     = 

OBJECT_NAME    = STARLINK-35751
OBJECT_ID      = 2025-244C
CENTER_NAME    = EARTH
REF_FRAME      = TEME
TIME_SYSTEM    = UTC
MEAN_ELEMENT_THEORY = SGP/SGP4

EPOCH          = 2025-11-19T06:00:02.000160
MEAN_MOTION    = 15.42169520
ECCENTRICITY   = .00015288
INCLINATION    = 53.1605
RA_OF_ASC_NODE = 26.8602
ARG_OF_PERICENTER = 63.6296
MEAN_ANOMALY   = 339.4546

EPHEMERIS_TYPE = 0
CLASSIFICATION_TYPE = U
NORAD_CAT_ID   = 66208
ELEMENT_SET_NO = 999
REV_AT_EPOCH   = 459
BSTAR          = -.61308933E-1
MEAN_MOTION_DOT = -.2375968E-1
MEAN_MOTION_DDOT = 0

CCSDS_OMM_VERS = 2.0
CREATION_DATE  = 
ORIGINATOR     = 

OBJECT_NAME    = STARLINK-35750
OBJECT_ID      = 2025-244D
CENTER_NAME    = EARTH
REF_FRAME      = TEME
TIME_SYSTEM    = UTC
MEAN_ELEMENT_THEORY = SGP/SGP4

EPOCH          = 2025-11-19T06:00:02.000160
MEAN_MOTION    = 15.44777561
ECCENTRICITY   = .00010929
INCLINATION    = 53.1602
RA_OF_ASC_NODE = 26.8252
ARG_OF_PERICENTER = 78.6805
MEAN_ANOMALY   = 341.7618

EPHEMERIS_TYPE = 0
CLASSIFICATION_TYPE = U
NORAD_CAT_ID   = 66209
ELEMENT_SET_NO = 999
REV_AT_EPOCH   = 456
BSTAR          = -.48148381E-1
MEAN_MOTION_DOT = -.2037016E-1
MEAN_MOTION_DDOT = 0

CCSDS_OMM_VERS = 2.0
CREATION_DATE  = 
ORIGINATOR     = 

OBJECT_NAME    = STARLINK-35740
OBJECT_ID      = 2025-244E
CENTER_NAME    = EARTH
REF_FRAME      = TEME
TIME_SYSTEM    = UTC
MEAN_ELEMENT_THEORY = SGP/SGP4

EPOCH          = 2025-11-19T06:00:02.000160
MEAN_MOTION    = 15.44793352
ECCENTRICITY   = .00011933
INCLINATION    = 53.1608
RA_OF_ASC_NODE = 26.8291
ARG_OF_PERICENTER = 83.5437
MEAN_ANOMALY   = 335.0190

EPHEMERIS_TYPE = 0
CLASSIFICATION_TYPE = U
NORAD_CAT_ID   = 66210
ELEMENT_SET_NO = 999
REV_AT_EPOCH   = 443
BSTAR          = -.48291933E-1
MEAN_MOTION_DOT = -.2043462E-1
MEAN_MOTION_DDOT = 0

CCSDS_OMM_VERS = 2.0
CREATION_DATE  = 
ORIGINATOR     = 

OBJECT_NAME    = STARLINK-35723
OBJECT_ID      = 2025-244F
CENTER_NAME    = EARTH
REF_FRAME      = TEME
TIME_SYSTEM    = UTC
MEAN_ELEMENT_THEORY = SGP/SGP4

EPOCH          = 2025-11-19T06:00:02.000160
MEAN_MOTION    = 15.47645271
ECCENTRICITY   = .00009272
INCLINATION    = 53.1608
RA_OF_ASC_NODE = 26.8065
ARG_OF_PERICENTER = 82.2839
MEAN_ANOMALY   = 347.1306

EPHEMERIS_TYPE = 0
CLASSIFICATION_TYPE = U
NORAD_CAT_ID   = 66211
ELEMENT_SET_NO = 999
REV_AT_EPOCH   = 448
BSTAR          = -.4441759E-1
MEAN_MOTION_DOT = -.207168E-1
MEAN_MOTION_DDOT = 0

